{
  "type": "FeatureCollection",
  "features": [
    {
      "type": "Feature",
      "properties": {
        "norad_id": 30232,
        "name": "FENGYUN 1C DEB",
        "group": "fengyun-1c-debris",
        "lat": -67.7927401116937,
        "lon": -144.0104543403226,
        "alt_km": 613.219107975533,
        "timestamp": "2025-12-19T10:50:01.475855+00:00",
        "meta_object_name": "FENGYUN 1C DEB",
        "meta_object_id": "1999-025WR",
        "meta_epoch": "2025-12-18T12:18:29.128032",
        "meta_mean_motion": 14.63635746,
        "meta_eccentricity": 0.01356317,
        "meta_inclination": 98.693,
        "meta_ra_of_asc_node": 192.9896,
        "meta_arg_of_pericenter": 331.9514,
        "meta_mean_anomaly": 57.0571,
        "meta_ephemeris_type": 0,
        "meta_classification_type": "U",
        "meta_norad_cat_id": 30232,
        "meta_element_set_no": 999,
        "meta_rev_at_epoch": 99836,
        "meta_bstar": 0.00060568726,
        "meta_mean_motion_dot": 3.537e-05,
        "meta_mean_motion_ddot": 0,
        "tle_line1": "1 30232U 99025WR  25352.51283713  .00003537  00000+0  60569-3 0  9998",
        "tle_line2": "2 30232  98.6930 192.9896 0135631 331.9514  57.0571 14.63635746998361"
      },
      "geometry": {
        "type": "Point",
        "coordinates": [
          -144.0104543403226,
          -67.7927401116937
        ]
      }
    },
    {
      "type": "Feature",
      "properties": {
        "norad_id": 30234,
        "name": "FENGYUN 1C DEB",
        "group": "fengyun-1c-debris",
        "lat": 33.107522153812496,
        "lon": -170.2820173405243,
        "alt_km": 833.7824752300439,
        "timestamp": "2025-12-19T10:50:01.475866+00:00",
        "meta_object_name": "FENGYUN 1C DEB",
        "meta_object_id": "1999-025WT",
        "meta_epoch": "2025-12-18T14:24:06.573312",
        "meta_mean_motion": 14.1687236,
        "meta_eccentricity": 0.00669121,
        "meta_inclination": 98.6337,
        "meta_ra_of_asc_node": 3.2059,
        "meta_arg_of_pericenter": 58.5273,
        "meta_mean_anomaly": 67.1071,
        "meta_ephemeris_type": 0,
        "meta_classification_type": "U",
        "meta_norad_cat_id": 30234,
        "meta_element_set_no": 999,
        "meta_rev_at_epoch": 97539,
        "meta_bstar": 0.00028585691,
        "meta_mean_motion_dot": 5.44e-06,
        "meta_mean_motion_ddot": 0,
        "tle_line1": "1 30234U 99025WT  25352.60007608  .00000544  00000+0  28586-3 0  9995",
        "tle_line2": "2 30234  98.6337   3.2059 0066912  58.5273  67.1071 14.16872360975396"
      },
      "geometry": {
        "type": "Point",
        "coordinates": [
          -170.2820173405243,
          33.107522153812496
        ]
      }
    },
    {
      "type": "Feature",
      "properties": {
        "norad_id": 30235,
        "name": "FENGYUN 1C DEB",
        "group": "fengyun-1c-debris",
        "lat": -80.7816566921929,
        "lon": 83.02359524906842,
        "alt_km": 803.4431037386776,
        "timestamp": "2025-12-19T10:50:01.475876+00:00",
        "meta_object_name": "FENGYUN 1C DEB",
        "meta_object_id": "1999-025WU",
        "meta_epoch": "2025-12-18T13:42:14.628960",
        "meta_mean_motion": 14.08786229,
        "meta_eccentricity": 0.01535864,
        "meta_inclination": 98.7491,
        "meta_ra_of_asc_node": 10.5694,
        "meta_arg_of_pericenter": 221.9869,
        "meta_mean_anomaly": 266.9205,
        "meta_ephemeris_type": 0,
        "meta_classification_type": "U",
        "meta_norad_cat_id": 30235,
        "meta_element_set_no": 999,
        "meta_rev_at_epoch": 96975,
        "meta_bstar": 0.00032440144,
        "meta_mean_motion_dot": 5.8e-06,
        "meta_mean_motion_ddot": 0,
        "tle_line1": "1 30235U 99025WU  25352.57100265  .00000580  00000+0  32440-3 0  9999",
        "tle_line2": "2 30235  98.7491  10.5694 0153586 221.9869 266.9205 14.08786229969756"
      },
      "geometry": {
        "type": "Point",
        "coordinates": [
          83.02359524906842,
          -80.7816566921929
        ]
      }
    },
    {
      "type": "Feature",
      "properties": {
        "norad_id": 30237,
        "name": "FENGYUN 1C DEB",
        "group": "fengyun-1c-debris",
        "lat": -77.2608650846888,
        "lon": -126.99377165659561,
        "alt_km": 753.1215676491083,
        "timestamp": "2025-12-19T10:50:01.475886+00:00",
        "meta_object_name": "FENGYUN 1C DEB",
        "meta_object_id": "1999-025WW",
        "meta_epoch": "2025-12-18T19:14:11.315904",
        "meta_mean_motion": 14.40972404,
        "meta_eccentricity": 0.00144541,
        "meta_inclination": 98.8254,
        "meta_ra_of_asc_node": 95.7455,
        "meta_arg_of_pericenter": 286.3279,
        "meta_mean_anomaly": 205.1367,
        "meta_ephemeris_type": 0,
        "meta_classification_type": "U",
        "meta_norad_cat_id": 30237,
        "meta_element_set_no": 999,
        "meta_rev_at_epoch": 97785,
        "meta_bstar": 0.0017454771,
        "meta_mean_motion_dot": 5.571e-05,
        "meta_mean_motion_ddot": 0,
        "tle_line1": "1 30237U 99025WW  25352.80151986  .00005571  00000+0  17455-2 0  9996",
        "tle_line2": "2 30237  98.8254  95.7455 0014454 286.3279 205.1367 14.40972404977858"
      },
      "geometry": {
        "type": "Point",
        "coordinates": [
          -126.99377165659561,
          -77.2608650846888
        ]
      }
    },
    {
      "type": "Feature",
      "properties": {
        "norad_id": 30239,
        "name": "FENGYUN 1C DEB",
        "group": "fengyun-1c-debris",
        "lat": -2.7399111005306644,
        "lon": 140.1690977748751,
        "alt_km": 904.6253123346887,
        "timestamp": "2025-12-19T10:50:01.475926+00:00",
        "meta_object_name": "FENGYUN 1C DEB",
        "meta_object_id": "1999-025WY",
        "meta_epoch": "2025-12-18T09:32:05.789472",
        "meta_mean_motion": 11.38194537,
        "meta_eccentricity": 0.13494726,
        "meta_inclination": 99.57,
        "meta_ra_of_asc_node": 139.0012,
        "meta_arg_of_pericenter": 20.3411,
        "meta_mean_anomaly": 344.6467,
        "meta_ephemeris_type": 0,
        "meta_classification_type": "U",
        "meta_norad_cat_id": 30239,
        "meta_element_set_no": 999,
        "meta_rev_at_epoch": 54599,
        "meta_bstar": 0.021435502,
        "meta_mean_motion_dot": 7.208e-05,
        "meta_mean_motion_ddot": 0,
        "tle_line1": "1 30239U 99025WY  25352.39728923  .00007208  00000+0  21436-1 0  9995",
        "tle_line2": "2 30239  99.5700 139.0012 1349472  20.3411 344.6467 11.38194537545994"
      },
      "geometry": {
        "type": "Point",
        "coordinates": [
          140.1690977748751,
          -2.7399111005306644
        ]
      }
    },
    {
      "type": "Feature",
      "properties": {
        "norad_id": 30241,
        "name": "FENGYUN 1C DEB",
        "group": "fengyun-1c-debris",
        "lat": 24.8743770463253,
        "lon": -49.273511719023695,
        "alt_km": 862.6950826291977,
        "timestamp": "2025-12-19T10:50:01.475941+00:00",
        "meta_object_name": "FENGYUN 1C DEB",
        "meta_object_id": "1999-025XA",
        "meta_epoch": "2025-12-18T22:43:39.467712",
        "meta_mean_motion": 14.09553357,
        "meta_eccentricity": 0.01466941,
        "meta_inclination": 99.1488,
        "meta_ra_of_asc_node": 125.9291,
        "meta_arg_of_pericenter": 63.8512,
        "meta_mean_anomaly": 50.9273,
        "meta_ephemeris_type": 0,
        "meta_classification_type": "U",
        "meta_norad_cat_id": 30241,
        "meta_element_set_no": 999,
        "meta_rev_at_epoch": 96999,
        "meta_bstar": 0.00018802439,
        "meta_mean_motion_dot": 3.18e-06,
        "meta_mean_motion_ddot": 0,
        "tle_line1": "1 30241U 99025XA  25352.94698458  .00000318  00000+0  18802-3 0  9998",
        "tle_line2": "2 30241  99.1488 125.9291 0146694  63.8512  50.9273 14.09553357969995"
      },
      "geometry": {
        "type": "Point",
        "coordinates": [
          -49.273511719023695,
          24.8743770463253
        ]
      }
    },
    {
      "type": "Feature",
      "properties": {
        "norad_id": 30242,
        "name": "FENGYUN 1C DEB",
        "group": "fengyun-1c-debris",
        "lat": -74.46624833277082,
        "lon": 60.82056175587417,
        "alt_km": 843.6462558987478,
        "timestamp": "2025-12-19T10:50:01.475952+00:00",
        "meta_object_name": "FENGYUN 1C DEB",
        "meta_object_id": "1999-025XB",
        "meta_epoch": "2025-12-18T08:24:24.581664",
        "meta_mean_motion": 14.1765144,
        "meta_eccentricity": 0.00108318,
        "meta_inclination": 98.6828,
        "meta_ra_of_asc_node": 26.3938,
        "meta_arg_of_pericenter": 39.1877,
        "meta_mean_anomaly": 27.4165,
        "meta_ephemeris_type": 0,
        "meta_classification_type": "U",
        "meta_norad_cat_id": 30242,
        "meta_element_set_no": 999,
        "meta_rev_at_epoch": 97506,
        "meta_bstar": 0.0005043831,
        "meta_mean_motion_dot": 9.84e-06,
        "meta_mean_motion_ddot": 0,
        "tle_line1": "1 30242U 99025XB  25352.35028451  .00000984  00000+0  50438-3 0  9994",
        "tle_line2": "2 30242  98.6828  26.3938 0010831  39.1877  27.4165 14.17651440975068"
      },
      "geometry": {
        "type": "Point",
        "coordinates": [
          60.82056175587417,
          -74.46624833277082
        ]
      }
    }
  ]
}